{"type": "FeatureCollection", "features": [ {"type": "Feature", "properties": {"norad_id": 31987, "name": "FENGYUN 1C DEB", "group": "fengyun-1c-debris", "lat": -74.91576431634299, "lon": -13.026847227518786, "alt_km": 754.523842690217, "timestamp": "2025-12-03T17:47:51.002629+00:00", "meta": {"OBJECT_NAME": "FENGYUN 1C DEB", "OBJECT_ID": "1999-025CPQ", "EPOCH": "2025-12-02T16:23:08.261664", "MEAN_MOTION": 14.44796864, "ECCENTRICITY": 0.00509556, "INCLINATION": 99.038, "RA_OF_ASC_NODE": 309.6517, "ARG_OF_PERICENTER": 187.7559, "MEAN_ANOMALY": 349.6916, "EPHEMERIS_TYPE": 0, "CLASSIFICATION_TYPE": "U", "NORAD_CAT_ID": 31987, "ELEMENT_SET_NO": 999, "REV_AT_EPOCH": 96224, "BSTAR": 0.0013654525, "MEAN_MOTION_DOT": 4.773e-05, "MEAN_MOTION_DDOT": 0}, "tle": {"line1": "1 31987U 99025CPQ 25336.68273451  .00004773  00000+0  13655-2 0  9990", "line2": "2 31987  99.0380 309.6517 0050955 187.7559 349.6916 14.44796864962240"}}, "geometry": {"type": "Point", "coordinates": [-13.026847227518786, -74.91576431634299]}}, {"type": "Feature", "properties": {"norad_id": 31989, "name": "FENGYUN 1C DEB", "group": "fengyun-1c-debris", "lat": 75.21824320172938, "lon": 0.9610087957309449, "alt_km": 943.356175591397, "timestamp": "2025-12-03T17:47:51.002639+00:00", "meta": {"OBJECT_NAME": "FENGYUN 1C DEB", "OBJECT_ID": "1999-025CPS", "EPOCH": "2025-12-03T10:36:56.256192", "MEAN_MOTION": 13.93565072, "ECCENTRICITY": 0.0115441, "INCLINATION": 99.2145, "RA_OF_ASC_NODE": 38.6271, "ARG_OF_PERICENTER": 324.531, "MEAN_ANOMALY": 52.2307, "EPHEMERIS_TYPE": 0, "CLASSIFICATION_TYPE": "U", "NORAD_CAT_ID": 31989, "ELEMENT_SET_NO": 999, "REV_AT_EPOCH": 93588, "BSTAR": 0.00073128, "MEAN_MOTION_DOT": 9.68e-06, "MEAN_MOTION_DDOT": 0}, "tle": {"line1": "1 31989U 99025CPS 25337.44231778  .00000968  00000+0  73128-3 0  9997", "line2": "2 31989  99.2145  38.6271 0115441 324.5310  52.2307 13.93565072935886"}}, "geometry": {"type": "Point", "coordinates": [0.9610087957309449, 75.21824320172938]}}, {"type": "Feature", "properties": {"norad_id": 31990, "name": "FENGYUN 1C DEB", "group": "fengyun-1c-debris", "lat": -80.09067075687231, "lon": 68.31216589283653, "alt_km": 971.1818365000227, "timestamp": "2025-12-03T17:47:51.002650+00:00", "meta": {"OBJECT_NAME": "FENGYUN 1C DEB", "OBJECT_ID": "1999-025CPT", "EPOCH": "2025-12-03T07:41:30.849216", "MEAN_MOTION": 13.57195401, "ECCENTRICITY": 0.0259857, "INCLINATION": 99.1612, "RA_OF_ASC_NODE": 0.4463, "ARG_OF_PERICENTER": 208.6704, "MEAN_ANOMALY": 166.2021, "EPHEMERIS_TYPE": 0, "CLASSIFICATION_TYPE": "U", "NORAD_CAT_ID": 31990, "ELEMENT_SET_NO": 999, "REV_AT_EPOCH": 62644, "BSTAR": 0.0003855, "MEAN_MOTION_DOT": 3.01e-06, "MEAN_MOTION_DDOT": 0}, "tle": {"line1": "1 31990U 99025CPT 25337.32049594  .00000301  00000+0  38550-3 0  9990", "line2": "2 31990  99.1612   0.4463 0259857 208.6704 166.2021 13.57195401626448"}}, "geometry": {"type": "Point", "coordinates": [68.31216589283653, -80.09067075687231]}}, {"type": "Feature", "properties": {"norad_id": 31991, "name": "FENGYUN 1C DEB", "group": "fengyun-1c-debris", "lat": 18.629838068930773, "lon": -10.355119562737935, "alt_km": 1012.4257237912307, "timestamp": "2025-12-03T17:47:51.002660+00:00", "meta": {"OBJECT_NAME": "FENGYUN 1C DEB", "OBJECT_ID": "1999-025CPU", "EPOCH": "2025-12-03T06:27:10.152000", "MEAN_MOTION": 13.6127431, "ECCENTRICITY": 0.0244591, "INCLINATION": 100.4871, "RA_OF_ASC_NODE": 165.5577, "ARG_OF_PERICENTER": 76.633, "MEAN_ANOMALY": 286.1951, "EPHEMERIS_TYPE": 0, "CLASSIFICATION_TYPE": "U", "NORAD_CAT_ID": 31991, "ELEMENT_SET_NO": 999, "REV_AT_EPOCH": 61958, "BSTAR": 0.00020994, "MEAN_MOTION_DOT": 1.46e-06, "MEAN_MOTION_DDOT": 0}, "tle": {"line1": "1 31991U 99025CPU 25337.26886750  .00000146  00000+0  20994-3 0  9997", "line2": "2 31991 100.4871 165.5577 0244591  76.6330 286.1951 13.61274310619581"}}, "geometry": {"type": "Point", "coordinates": [-10.355119562737935, 18.629838068930773]}}, {"type": "Feature", "properties": {"norad_id": 31992, "name": "FENGYUN 1C DEB", "group": "fengyun-1c-debris", "lat": -25.339351830418902, "lon": 114.28711351039344, "alt_km": 1543.3730329301388, "timestamp": "2025-12-03T17:47:51.002670+00:00", "meta": {"OBJECT_NAME": "FENGYUN 1C DEB", "OBJECT_ID": "1999-025CPV", "EPOCH": "2025-11-28T04:18:18.013824", "MEAN_MOTION": 13.22945767, "ECCENTRICITY": 0.05423475, "INCLINATION": 99.1642, "RA_OF_ASC_NODE": 293.7613, "ARG_OF_PERICENTER": 64.8199, "MEAN_ANOMALY": 300.815, "EPHEMERIS_TYPE": 0, "CLASSIFICATION_TYPE": "U", "NORAD_CAT_ID": 31992, "ELEMENT_SET_NO": 999, "REV_AT_EPOCH": 53682, "BSTAR": 0.0012217074, "MEAN_MOTION_DOT": 1.091e-05, "MEAN_MOTION_DDOT": 0}, "tle": {"line1": "1 31992U 99025CPV 25332.17937516  .00001091  00000+0  12217-2 0  9998", "line2": "2 31992  99.1642 293.7613 0542347  64.8199 300.8150 13.22945767536827"}}, "geometry": {"type": "Point", "coordinates": [114.28711351039344, -25.339351830418902]}}, {"type": "Feature", "properties": {"norad_id": 31993, "name": "FENGYUN 1C DEB", "group": "fengyun-1c-debris", "lat": 80.73567671559104, "lon": -135.61021496383185, "alt_km": 1018.9150953340477, "timestamp": "2025-12-03T17:47:51.002680+00:00", "meta": {"OBJECT_NAME": "FENGYUN 1C DEB", "OBJECT_ID": "1999-025CPW", "EPOCH": "2025-12-02T16:00:35.638560", "MEAN_MOTION": 13.27424554, "ECCENTRICITY": 0.04213004, "INCLINATION": 99.2426, "RA_OF_ASC_NODE": 309.9868, "ARG_OF_PERICENTER": 160.0851, "MEAN_ANOMALY": 201.7283, "EPHEMERIS_TYPE": 0, "CLASSIFICATION_TYPE": "U", "NORAD_CAT_ID": 31993, "ELEMENT_SET_NO": 999, "REV_AT_EPOCH": 88809, "BSTAR": 0.0013089628, "MEAN_MOTION_DOT": 9.17e-06, "MEAN_MOTION_DDOT": 0}, "tle": {"line1": "1 31993U 99025CPW 25336.66707915  .00000917  00000+0  13090-2 0  9991", "line2": "2 31993  99.2426 309.9868 0421300 160.0851 201.7283 13.27424554888096"}}, "geometry": {"type": "Point", "coordinates": [-135.61021496383185, 80.73567671559104]}}, {"type": "Feature", "properties": {"norad_id": 31994, "name": "FENGYUN 1C DEB", "group": "fengyun-1c-debris", "lat": -62.434721822776865, "lon": 135.84605514571427, "alt_km": 878.6856056646966, "timestamp": "2025-12-03T17:47:51.002691+00:00", "meta": {"OBJECT_NAME": "FENGYUN 1C DEB", "OBJECT_ID": "1999-025CPX", "EPOCH": "2025-11-30T19:49:26.043168", "MEAN_MOTION": 13.95748964, "ECCENTRICITY": 0.01617781, "INCLINATION": 98.5385, "RA_OF_ASC_NODE": 329.8681, "ARG_OF_PERICENTER": 179.159, "MEAN_ANOMALY": 180.9876, "EPHEMERIS_TYPE": 0, "CLASSIFICATION_TYPE": "U", "NORAD_CAT_ID": 31994, "ELEMENT_SET_NO": 999, "REV_AT_EPOCH": 56630, "BSTAR": 4.9911834e-05, "MEAN_MOTION_DOT": 3.7e-07, "MEAN_MOTION_DDOT": 0}, "tle": {"line1": "1 31994U 99025CPX 25334.82599587  .00000037  00000+0  49912-4 0  9999", "line2": "2 31994  98.5385 329.8681 0161778 179.1590 180.9876 13.95748964566300"}}, "geometry": {"type": "Point", "coordinates": [135.84605514571427, -62.434721822776865]}}, {"type": "Feature", "properties": {"norad_id": 31997, "name": "FENGYUN 1C DEB", "group": "fengyun-1c-debris", "lat": -74.52881383850853, "lon": 145.40329473069687, "alt_km": 859.6723513559264, "timestamp": "2025-12-03T17:47:51.002701+00:00", "meta": {"OBJECT_NAME": "FENGYUN 1C DEB", "OBJECT_ID": "1999-025CQA", "EPOCH": "2025-12-03T07:40:21.213408", "MEAN_MOTION": 13.60611226, "ECCENTRICITY": 0.0289142, "INCLINATION": 102.5115, "RA_OF_ASC_NODE": 18.2067, "ARG_OF_PERICENTER": 295.08, "MEAN_ANOMALY": 62.0579, "EPHEMERIS_TYPE": 0, "CLASSIFICATION_TYPE": "U", "NORAD_CAT_ID": 31997, "ELEMENT_SET_NO": 999, "REV_AT_EPOCH": 61555, "BSTAR": 0.0027903, "MEAN_MOTION_DOT": 2.707e-05, "MEAN_MOTION_DDOT": 0}, "tle": {"line1": "1 31997U 99025CQA 25337.31968997  .00002707  00000+0  27903-2 0  9994", "line2": "2 31997 102.5115  18.2067 0289142 295.0800  62.0579 13.60611226615559"}}, "geometry": {"type": "Point", "coordinates": [145.40329473069687, -74.52881383850853]}}, {"type": "Feature", "properties": {"norad_id": 32086, "name": "FENGYUN 1C DEB", "group": "fengyun-1c-debris", "lat": -68.8369933182725, "lon": -171.96629522893824, "alt_km": 1012.6385140927587, "timestamp": "2025-12-03T17:47:51.002711+00:00", "meta": {"OBJECT_NAME": "FENGYUN 1C DEB", "OBJECT_ID": "1999-025CQC", "EPOCH": "2025-11-29T21:22:24.381408", "MEAN_MOTION": 13.68796405, "ECCENTRICITY": 0.03015011, "INCLINATION": 99.2704, "RA_OF_ASC_NODE": 29.2799, "ARG_OF_PERICENTER": 168.7326, "MEAN_ANOMALY": 192.0773, "EPHEMERIS_TYPE": 0, "CLASSIFICATION_TYPE": "U", "NORAD_CAT_ID": 32086, "ELEMENT_SET_NO": 999, "REV_AT_EPOCH": 61605, "BSTAR": 0.0024766711, "MEAN_MOTION_DOT": 2.889e-05, "MEAN_MOTION_DDOT": 0}, "tle": {"line1": "1 32086U 99025CQC 25333.89055997  .00002889  00000+0  24767-2 0  9996", "line2": "2 32086  99.2704  29.2799 0301501 168.7326 192.0773 13.68796405616059"}}, "geometry": {"type": "Point", "coordinates": [-171.96629522893824, -68.8369933182725]}}, {"type": "Feature", "properties": {"norad_id": 32088, "name": "FENGYUN 1C DEB", "group": "fengyun-1c-debris", "lat": -20.593294541198862, "lon": -153.27104625919122, "alt_km": 887.5081760535095, "timestamp": "2025-12-03T17:47:51.002722+00:00", "meta": {"OBJECT_NAME": "FENGYUN 1C DEB", "OBJECT_ID": "1999-025CQE", "EPOCH": "2025-12-03T08:50:08.706048", "MEAN_MOTION": 13.25117787, "ECCENTRICITY": 0.0461007, "INCLINATION": 102.4015, "RA_OF_ASC_NODE": 201.5414, "ARG_OF_PERICENTER": 17.0151, "MEAN_ANOMALY": 344.5857, "EPHEMERIS_TYPE": 0, "CLASSIFICATION_TYPE": "U", "NORAD_CAT_ID": 32088, "ELEMENT_SET_NO": 999, "REV_AT_EPOCH": 59720, "BSTAR": 0.0053156, "MEAN_MOTION_DOT": 4.028e-05, "MEAN_MOTION_DDOT": 0}, "tle": {"line1": "1 32088U 99025CQE 25337.36815632  .00004028  00000+0  53156-2 0  9995", "line2": "2 32088 102.4015 201.5414 0461007  17.0151 344.5857 13.25117787597207"}}, "geometry": {"type": "Point", "coordinates": [-153.27104625919122, -20.593294541198862]}}]}